{
    "links": {
        "self": "http://www.neowsapp.com/rest/v1/neo/54016558?api_key=iIulBulltgU6a56xZRHN4H3l9WmuAYTsLGpBGhQ2"
    },
    "id": "54016558",
    "neo_reference_id": "54016558",
    "name": "(2020 HM)",
    "designation": "2020 HM",
    "nasa_jpl_url": "http://ssd.jpl.nasa.gov/sbdb.cgi?sstr=54016558",
    "absolute_magnitude_h": 24.256,
    "estimated_diameter": {
        "kilometers": {
            "estimated_diameter_min": 0.0374416498,
            "estimated_diameter_max": 0.0837220741
        },
        "meters": {
            "estimated_diameter_min": 37.4416497743,
            "estimated_diameter_max": 83.722074085
        },
        "miles": {
            "estimated_diameter_min": 0.0232651554,
            "estimated_diameter_max": 0.0520224689
        },
        "feet": {
            "estimated_diameter_min": 122.8400622455,
            "estimated_diameter_max": 274.6787295411
        }
    },
    "is_potentially_hazardous_asteroid": false,
    "close_approach_data": [
        {
            "close_approach_date": "2016-03-25",
            "close_approach_date_full": "2016-Mar-25 07:21",
            "epoch_date_close_approach": 1458890460000,
            "relative_velocity": {
                "kilometers_per_second": "20.858258843",
                "kilometers_per_hour": "75089.7318348194",
                "miles_per_hour": "46657.8392059188"
            },
            "miss_distance": {
                "astronomical": "0.4024050561",
                "lunar": "156.5355668229",
                "kilometers": "60198939.269790507",
                "miles": "37405886.3282507166"
            },
            "orbiting_body": "Earth"
        },
        {
            "close_approach_date": "2018-04-06",
            "close_approach_date_full": "2018-Apr-06 11:29",
            "epoch_date_close_approach": 1523014140000,
            "relative_velocity": {
                "kilometers_per_second": "17.5382273419",
                "kilometers_per_hour": "63137.6184307648",
                "miles_per_hour": "39231.2607410494"
            },
            "miss_distance": {
                "astronomical": "0.1901112061",
                "lunar": "73.9532591729",
                "kilometers": "28440231.495691007",
                "miles": "17671940.3926576166"
            },
            "orbiting_body": "Earth"
        },
        {
            "close_approach_date": "2020-04-17",
            "close_approach_date_full": "2020-Apr-17 23:33",
            "epoch_date_close_approach": 1587166380000,
            "relative_velocity": {
                "kilometers_per_second": "16.1102297727",
                "kilometers_per_hour": "57996.8271816527",
                "miles_per_hour": "36036.9729785108"
            },
            "miss_distance": {
                "astronomical": "0.0291492058",
                "lunar": "11.3390410562",
                "kilometers": "4360659.099871646",
                "miles": "2709587.9193988748"
            },
            "orbiting_body": "Earth"
        },
        {
            "close_approach_date": "2022-05-02",
            "close_approach_date_full": "2022-May-02 00:49",
            "epoch_date_close_approach": 1651452540000,
            "relative_velocity": {
                "kilometers_per_second": "17.1573338155",
                "kilometers_per_hour": "61766.4017357831",
                "miles_per_hour": "38379.2400118814"
            },
            "miss_distance": {
                "astronomical": "0.2454852398",
                "lunar": "95.4937582822",
                "kilometers": "36724068.990519226",
                "miles": "22819278.3267122788"
            },
            "orbiting_body": "Earth"
        }
    ],
    "orbital_data": {
        "orbit_id": "6",
        "orbit_determination_date": "2020-04-27 07:37:49",
        "first_observation_date": "2020-04-17",
        "last_observation_date": "2020-04-23",
        "data_arc_in_days": 6,
        "observations_used": 93,
        "orbit_uncertainty": "8",
        "minimum_orbit_intersection": ".0200842",
        "jupiter_tisserand_invariant": "4.154",
        "epoch_osculation": "2458958.5",
        "eccentricity": ".3634062994904115",
        "semi_major_axis": "1.606351709778929",
        "inclination": "27.91345066565654",
        "ascending_node_longitude": "206.7219198948956",
        "orbital_period": "743.634254405499",
        "perihelion_distance": "1.022593379248073",
        "perihelion_argument": "5.581737350710974",
        "aphelion_distance": "2.190110040309785",
        "perihelion_time": "2458962.301287038406",
        "mean_anomaly": "358.1597629133959",
        "mean_motion": ".4841089525761603",
        "equinox": "J2000",
        "orbit_class": {
            "orbit_class_type": "AMO",
            "orbit_class_description": "Near-Earth asteroid orbits similar to that of 1221 Amor",
            "orbit_class_range": "1.017 AU < q (perihelion) < 1.3 AU"
        }
    },
    "is_sentry_object": false
}